start=new Date('2022-01-04T00:00:00.000Z').valueOf();
sats=[{"GP_ID":"193016420","MEAN_MOTION_DOT":"0.00000327","CLASSIFICATION_TYPE":"U","ARG_OF_PERICENTER":"85.5724","REV_AT_EPOCH":"3831","SITE":"AFETR","INCLINATION":"53.0550","MEAN_MOTION_DDOT":"0.0000000000000","MEAN_ANOMALY":"274.5418","ELEMENT_SET_NO":"999","RCS_SIZE":"LARGE","EPHEMERIS_TYPE":"0","PERIAPSIS":"546.313","FILE":"3256498","ECCENTRICITY":"0.00013320","BSTAR":"0.00004085000000","OBJECT_ID":"2021-036P","TLE_LINE2":"2 48289  53.0550  91.9063 0001332  85.5724 274.5418 15.06392749 38311","COUNTRY_CODE":"US","DECAY_DATE":null,"LAUNCH_DATE":"2021-04-29","NORAD_CAT_ID":"48289","APOAPSIS":"548.158","MEAN_MOTION":"15.06392749","TIME_SYSTEM":"UTC","OBJECT_NAME":"STARLINK-2545","REF_FRAME":"TEME","CENTER_NAME":"EARTH","RA_OF_ASC_NODE":"91.9063","TLE_LINE1":"1 48289U 21036P   22003.73022853  .00000327  00000-0  40850-4 0  9993","PERIOD":"95.593","MEAN_ELEMENT_THEORY":"SGP4","EPOCH":"2022-01-03T17:31:31.744992","OBJECT_TYPE":"PAYLOAD","SEMIMAJOR_AXIS":"6925.371"},{"MEAN_ANOMALY":"277.3927","ELEMENT_SET_NO":"999","MEAN_MOTION_DDOT":"0.0000000000000","ARG_OF_PERICENTER":"82.7185","REV_AT_EPOCH":"3830","SITE":"AFETR","INCLINATION":"53.0555","MEAN_MOTION_DOT":"-0.00001490","GP_ID":"193017166","CLASSIFICATION_TYPE":"U","FILE":"3256498","PERIAPSIS":"546.511","RCS_SIZE":"LARGE","EPHEMERIS_TYPE":"0","BSTAR":"-0.00008117200000","ECCENTRICITY":"0.00010800","OBJECT_ID":"2021-036Q","TLE_LINE2":"2 48290  53.0555  92.2437 0001080  82.7185 277.3927 15.06385113 38309","LAUNCH_DATE":"2021-04-29","DECAY_DATE":null,"COUNTRY_CODE":"US","OBJECT_NAME":"STARLINK-2540","TIME_SYSTEM":"UTC","APOAPSIS":"548.007","NORAD_CAT_ID":"48290","MEAN_MOTION":"15.06385113","RA_OF_ASC_NODE":"92.2437","TLE_LINE1":"1 48290U 21036Q   22003.66021985 -.00001490  00000-0 -81172-4 0  9998","CENTER_NAME":"EARTH","REF_FRAME":"TEME","SEMIMAJOR_AXIS":"6925.394","OBJECT_TYPE":"PAYLOAD","MEAN_ELEMENT_THEORY":"SGP4","EPOCH":"2022-01-03T15:50:42.995040","PERIOD":"95.593"},{"BSTAR":"-0.00004913800000","ECCENTRICITY":"0.00013930","OBJECT_ID":"2021-036R","TLE_LINE2":"2 48291  53.0550  92.2519 0001393  79.1029 281.0117 15.06396298 38309","MEAN_ANOMALY":"281.0117","ELEMENT_SET_NO":"999","MEAN_MOTION_DDOT":"0.0000000000000","ARG_OF_PERICENTER":"79.1029","INCLINATION":"53.0550","SITE":"AFETR","REV_AT_EPOCH":"3830","CLASSIFICATION_TYPE":"U","GP_ID":"193017422","MEAN_MOTION_DOT":"-0.00001013","FILE":"3256498","PERIAPSIS":"546.260","RCS_SIZE":"LARGE","EPHEMERIS_TYPE":"0","RA_OF_ASC_NODE":"92.2519","TLE_LINE1":"1 48291U 21036R   22003.65650905 -.00001013  00000-0 -49138-4 0  9995","CENTER_NAME":"EARTH","REF_FRAME":"TEME","SEMIMAJOR_AXIS":"6925.360","OBJECT_TYPE":"PAYLOAD","MEAN_ELEMENT_THEORY":"SGP4","EPOCH":"2022-01-03T15:45:22.381920","PERIOD":"95.592","LAUNCH_DATE":"2021-04-29","DECAY_DATE":null,"COUNTRY_CODE":"US","OBJECT_NAME":"STARLINK-2555","TIME_SYSTEM":"UTC","NORAD_CAT_ID":"48291","APOAPSIS":"548.190","MEAN_MOTION":"15.06396298"},{"FILE":"3256498","EPHEMERIS_TYPE":"0","RCS_SIZE":"LARGE","PERIAPSIS":"546.283","MEAN_MOTION_DDOT":"0.0000000000000","ELEMENT_SET_NO":"999","MEAN_ANOMALY":"276.0431","GP_ID":"193018163","MEAN_MOTION_DOT":"0.00000753","CLASSIFICATION_TYPE":"U","SITE":"AFETR","REV_AT_EPOCH":"3830","INCLINATION":"53.0557","ARG_OF_PERICENTER":"84.0713","TLE_LINE2":"2 48292  53.0557  92.2688 0001360  84.0713 276.0431 15.06396381 38309","OBJECT_ID":"2021-036S","ECCENTRICITY":"0.00013600","BSTAR":"0.00006942600000","TIME_SYSTEM":"UTC","OBJECT_NAME":"STARLINK-2542","MEAN_MOTION":"15.06396381","APOAPSIS":"548.166","NORAD_CAT_ID":"48292","DECAY_DATE":null,"LAUNCH_DATE":"2021-04-29","COUNTRY_CODE":"US","OBJECT_TYPE":"PAYLOAD","SEMIMAJOR_AXIS":"6925.360","PERIOD":"95.592","EPOCH":"2022-01-03T15:38:42.219456","MEAN_ELEMENT_THEORY":"SGP4","TLE_LINE1":"1 48292U 21036S   22003.65187754  .00000753  00000-0  69426-4 0  9993","RA_OF_ASC_NODE":"92.2688","REF_FRAME":"TEME","CENTER_NAME":"EARTH"},{"FILE":"3255250","PERIAPSIS":"546.522","RCS_SIZE":"LARGE","EPHEMERIS_TYPE":"0","MEAN_ANOMALY":"271.3086","ELEMENT_SET_NO":"999","MEAN_MOTION_DDOT":"0.0000000000000","ARG_OF_PERICENTER":"88.8020","REV_AT_EPOCH":"3828","SITE":"AFETR","INCLINATION":"53.0556","CLASSIFICATION_TYPE":"U","GP_ID":"192969208","MEAN_MOTION_DOT":"0.00000610","OBJECT_ID":"2021-036T","TLE_LINE2":"2 48293  53.0556  92.8738 0001020  88.8020 271.3086 15.06395064 38285","BSTAR":"0.00005984400000","ECCENTRICITY":"0.00010200","TIME_SYSTEM":"UTC","OBJECT_NAME":"STARLINK-2550","APOAPSIS":"547.935","NORAD_CAT_ID":"48293","MEAN_MOTION":"15.06395064","LAUNCH_DATE":"2021-04-29","DECAY_DATE":null,"COUNTRY_CODE":"US","SEMIMAJOR_AXIS":"6925.364","OBJECT_TYPE":"PAYLOAD","MEAN_ELEMENT_THEORY":"SGP4","EPOCH":"2022-01-03T12:23:40.682976","PERIOD":"95.592","RA_OF_ASC_NODE":"92.8738","TLE_LINE1":"1 48293U 21036T   22003.51644309  .00000610  00000-0  59844-4 0  9998","CENTER_NAME":"EARTH","REF_FRAME":"TEME"},{"COUNTRY_CODE":"US","LAUNCH_DATE":"2021-04-29","DECAY_DATE":null,"MEAN_MOTION":"15.06396293","NORAD_CAT_ID":"48294","APOAPSIS":"548.122","TIME_SYSTEM":"UTC","OBJECT_NAME":"STARLINK-2533","CENTER_NAME":"EARTH","REF_FRAME":"TEME","TLE_LINE1":"1 48294U 21036U   22003.51275720  .00000942  00000-0  82146-4 0  9995","RA_OF_ASC_NODE":"92.9046","EPOCH":"2022-01-03T12:18:22.222080","MEAN_ELEMENT_THEORY":"SGP4","PERIOD":"95.592","SEMIMAJOR_AXIS":"6925.360","OBJECT_TYPE":"PAYLOAD","SITE":"AFETR","INCLINATION":"53.0557","REV_AT_EPOCH":"3828","ARG_OF_PERICENTER":"73.2495","CLASSIFICATION_TYPE":"U","GP_ID":"192968461","MEAN_MOTION_DOT":"0.00000942","ELEMENT_SET_NO":"999","MEAN_ANOMALY":"286.8636","MEAN_MOTION_DDOT":"0.0000000000000","PERIAPSIS":"546.327","RCS_SIZE":"LARGE","EPHEMERIS_TYPE":"0","FILE":"3255250","BSTAR":"0.00008214600000","ECCENTRICITY":"0.00012960","TLE_LINE2":"2 48294  53.0557  92.9046 0001296  73.2495 286.8636 15.06396293 38286","OBJECT_ID":"2021-036U"},{"ELEMENT_SET_NO":"999","MEAN_ANOMALY":"269.8018","MEAN_MOTION_DDOT":"0.0000000000000","SITE":"AFETR","INCLINATION":"53.0536","REV_AT_EPOCH":"3828","ARG_OF_PERICENTER":"90.3108","GP_ID":"192968711","MEAN_MOTION_DOT":"0.00001416","CLASSIFICATION_TYPE":"U","FILE":"3255250","PERIAPSIS":"546.394","RCS_SIZE":"LARGE","EPHEMERIS_TYPE":"0","BSTAR":"0.00011396000000","ECCENTRICITY":"0.00011950","TLE_LINE2":"2 48295  53.0536  92.9096 0001195  90.3108 269.8018 15.06397491 38284","OBJECT_ID":"2021-036V","LAUNCH_DATE":"2021-04-29","DECAY_DATE":null,"COUNTRY_CODE":"US","OBJECT_NAME":"STARLINK-2535","TIME_SYSTEM":"UTC","MEAN_MOTION":"15.06397491","APOAPSIS":"548.049","NORAD_CAT_ID":"48295","TLE_LINE1":"1 48295U 21036V   22003.50907201  .00001416  00000-0  11396-3 0  9996","RA_OF_ASC_NODE":"92.9096","CENTER_NAME":"EARTH","REF_FRAME":"TEME","SEMIMAJOR_AXIS":"6925.356","OBJECT_TYPE":"PAYLOAD","EPOCH":"2022-01-03T12:13:03.821664","MEAN_ELEMENT_THEORY":"SGP4","PERIOD":"95.592"},{"ECCENTRICITY":"0.00013840","BSTAR":"0.00011099000000","TLE_LINE2":"2 48296  53.0563  92.3355 0001384 122.4784 237.6339 15.06413300 38304","OBJECT_ID":"2021-036W","MEAN_MOTION_DOT":"0.00001373","GP_ID":"193017668","CLASSIFICATION_TYPE":"U","REV_AT_EPOCH":"3830","SITE":"AFETR","INCLINATION":"53.0563","ARG_OF_PERICENTER":"122.4784","MEAN_MOTION_DDOT":"0.0000000000000","ELEMENT_SET_NO":"999","MEAN_ANOMALY":"237.6339","RCS_SIZE":"LARGE","EPHEMERIS_TYPE":"0","PERIAPSIS":"546.214","FILE":"3256498","REF_FRAME":"TEME","CENTER_NAME":"EARTH","TLE_LINE1":"1 48296U 21036W   22003.63806022  .00001373  00000-0  11099-3 0  9992","RA_OF_ASC_NODE":"92.3355","PERIOD":"95.591","EPOCH":"2022-01-03T15:18:48.403008","MEAN_ELEMENT_THEORY":"SGP4","OBJECT_TYPE":"PAYLOAD","SEMIMAJOR_AXIS":"6925.308","COUNTRY_CODE":"US","DECAY_DATE":null,"LAUNCH_DATE":"2021-04-29","MEAN_MOTION":"15.06413300","NORAD_CAT_ID":"48296","APOAPSIS":"548.131","OBJECT_NAME":"STARLINK-2546","TIME_SYSTEM":"UTC"},{"TIME_SYSTEM":"UTC","OBJECT_NAME":"STARLINK-2544","NORAD_CAT_ID":"48297","APOAPSIS":"548.112","MEAN_MOTION":"15.06390070","LAUNCH_DATE":"2021-04-29","DECAY_DATE":null,"COUNTRY_CODE":"US","SEMIMAJOR_AXIS":"6925.379","OBJECT_TYPE":"PAYLOAD","MEAN_ELEMENT_THEORY":"SGP4","EPOCH":"2022-01-03T15:13:31.765152","PERIOD":"95.593","RA_OF_ASC_NODE":"92.3509","TLE_LINE1":"1 48297U 21036X   22003.63439543  .00000485  00000-0  51492-4 0  9998","CENTER_NAME":"EARTH","REF_FRAME":"TEME","FILE":"3256498","PERIAPSIS":"546.376","RCS_SIZE":"LARGE","EPHEMERIS_TYPE":"0","MEAN_ANOMALY":"280.5309","ELEMENT_SET_NO":"999","MEAN_MOTION_DDOT":"0.0000000000000","ARG_OF_PERICENTER":"79.5822","SITE":"AFETR","REV_AT_EPOCH":"3830","INCLINATION":"53.0543","MEAN_MOTION_DOT":"0.00000485","GP_ID":"193016421","CLASSIFICATION_TYPE":"U","OBJECT_ID":"2021-036X","TLE_LINE2":"2 48297  53.0543  92.3509 0001254  79.5822 280.5309 15.06390070 38307","BSTAR":"0.00005149200000","ECCENTRICITY":"0.00012540"},{"MEAN_MOTION_DDOT":"0.0000000000000","MEAN_ANOMALY":"262.4299","ELEMENT_SET_NO":"999","GP_ID":"192967961","MEAN_MOTION_DOT":"0.00001812","CLASSIFICATION_TYPE":"U","ARG_OF_PERICENTER":"97.6823","SITE":"AFETR","REV_AT_EPOCH":"3827","INCLINATION":"53.0546","FILE":"3255250","RCS_SIZE":"LARGE","EPHEMERIS_TYPE":"0","PERIAPSIS":"546.412","ECCENTRICITY":"0.00011690","BSTAR":"0.00014049000000","OBJECT_ID":"2021-036Y","TLE_LINE2":"2 48298  53.0546  93.2591 0001169  97.6823 262.4299 15.06397297 38270","DECAY_DATE":null,"LAUNCH_DATE":"2021-04-29","COUNTRY_CODE":"US","TIME_SYSTEM":"UTC","OBJECT_NAME":"STARLINK-2559","NORAD_CAT_ID":"48298","APOAPSIS":"548.031","MEAN_MOTION":"15.06397297","RA_OF_ASC_NODE":"93.2591","TLE_LINE1":"1 48298U 21036Y   22003.43166536  .00001812  00000-0  14049-3 0  9997","REF_FRAME":"TEME","CENTER_NAME":"EARTH","OBJECT_TYPE":"PAYLOAD","SEMIMAJOR_AXIS":"6925.357","PERIOD":"95.592","MEAN_ELEMENT_THEORY":"SGP4","EPOCH":"2022-01-03T10:21:35.887104"}];
